GPS BIIR-2  (PRN 13)    
1 24876U 97035A   23153.36500882  .00000089  00000+0  00000+0 0  9992
2 24876  55.5709 142.0144 0068182  50.7916 309.8134  2.00564029189676
GPS BIIR-4  (PRN 20)    
1 26360U 00025A   23153.72471861 -.00000054  00000+0  00000+0 0  9992
2 26360  54.3523  64.4422 0041134 198.1213 147.7174  2.00577466168992
GPS BIIR-8  (PRN 16)    
1 27663U 03005A   23153.26660149 -.00000003  00000+0  00000+0 0  9992
2 27663  55.2942 259.1547 0131571  44.5253 312.1004  2.00571411149025
GPS BIIR-9  (PRN 21)    
1 27704U 03010A   23153.76502514 -.00000068  00000+0  00000+0 0  9991
2 27704  55.1073   9.1448 0248549 316.4767 257.2838  2.00570586147836
GPS BIIR-11 (PRN 19)    
1 28190U 04009A   23153.80370039 -.00000052  00000+0  00000+0 0  9993
2 28190  55.7653 320.1804 0092661 133.5109  47.7464  2.00569614140670
GPS BIIR-13 (PRN 02)    
1 28474U 04045A   23153.72347176 -.00000068  00000+0  00000+0 0  9992
2 28474  55.4331   9.4349 0175299 286.5357 264.4434  1.99885207136158
GPS BIIRM-1 (PRN 17)    
1 28874U 05038A   23153.51858810 -.00000052  00000+0  00000+0 0  9991
2 28874  55.8192 317.6404 0137007 279.2441  77.9194  2.00552341129554
GPS BIIRM-2 (PRN 31)    
1 29486U 06042A   23153.64906698  .00000102  00000+0  00000+0 0  9994
2 29486  54.6868 195.3702 0104458  29.4065 321.4747  2.00499431122110
GPS BIIRM-3 (PRN 12)    
1 29601U 06052A   23153.58193502  .00000001  00000+0  00000+0 0  9997
2 29601  55.3118 258.0963 0085635  78.5157 282.4669  2.00572478121136
GPS BIIRM-4 (PRN 15)    
1 32260U 07047A   23153.38896340  .00000056  00000+0  00000+0 0  9995
2 32260  53.4309 126.0353 0147256  68.4344 293.1040  2.00556558114532
GPS BIIRM-5 (PRN 29)    
1 32384U 07062A   23153.61454466 -.00000052  00000+0  00000+0 0  9991
2 32384  55.9484 318.4443 0024125 141.9955 151.0712  2.00553672113295
GPS BIIRM-6 (PRN 07)    
1 32711U 08012A   23153.30409529  .00000103  00000+0  00000+0 0  9993
2 32711  54.4531 194.2367 0175300 234.8222 123.6122  2.00554929111476
GPS BIIRM-8 (PRN 05)    
1 35752U 09043A   23153.78872685 -.00000045  00000+0  00000+0 0  9991
2 35752  55.3548  71.4600 0057620  65.2160 300.4168  2.00563364101094
GPS BIIF-1  (PRN 25)    
1 36585U 10022A   23151.20315473 -.00000015  00000+0  00000+0 0  9994
2 36585  54.6081 253.4719 0108964  59.6534 355.6210  2.00556995 95270
GPS BIIF-2  (PRN 01)    
1 37753U 11036A   23153.74869073 -.00000066  00000+0  00000+0 0  9995
2 37753  56.7238  15.0933 0126830  54.9198 122.2997  2.00567731 87003
GPS BIIF-3  (PRN 24)    
1 38833U 12053A   23153.48647457  .00000105  00000+0  00000+0 0  9999
2 38833  53.5129 189.0280 0137141  50.6489 310.6464  2.00565773 77169
GPS BIIF-4  (PRN 27)    
1 39166U 13023A   23153.34655395 -.00000051  00000+0  00000+0 0  9993
2 39166  55.4360 313.8810 0114274  41.4470 319.4026  2.00564561 73603
GPS BIIF-5  (PRN 30)    
1 39533U 14008A   23153.34472117  .00000101  00000+0  00000+0 0  9999
2 39533  53.6010 194.5797 0066408 213.8437 145.8204  2.00573095 67406
GPS BIIF-6  (PRN 06)    
1 39741U 14026A   23153.12585362 -.00000067  00000+0  00000+0 0  9995
2 39741  56.6785  14.6404 0029158 314.1371  45.6808  2.00563969 66257
GPS BIIF-7  (PRN 09)    
1 40105U 14045A   23153.21720032  .00000072  00000+0  00000+0 0  9992
2 40105  54.7863 132.8327 0021588 113.8573 246.3564  2.00571223 63790
GPS BIIF-8  (PRN 03)    
1 40294U 14068A   23153.59102208 -.00000041  00000+0  00000+0 0  9993
2 40294  56.0981  74.1408 0046777  57.6362 302.8094  2.00565453 62930
GPS BIIF-9  (PRN 26)    
1 40534U 15013A   23153.72310936  .00000013  00000+0  00000+0 0  9993
2 40534  53.5054 250.1735 0078079  25.1266 335.2900  2.00560299 59555
GPS BIIF-10 (PRN 08)    
1 40730U 15033A   23153.38534310 -.00000051  00000+0  00000+0 0  9992
2 40730  54.9262 312.5392 0084181  13.9220 346.2947  2.00560139 57719
GPS BIIF-11 (PRN 10)    
1 41019U 15062A   23153.43984756 -.00000041  00000+0  00000+0 0  9993
2 41019  56.0827  73.9952 0086613 221.8934 137.4369  2.00562245 55552
GPS BIIF-12 (PRN 32)    
1 41328U 16007A   23153.03045600  .00000076  00000+0  00000+0 0  9995
2 41328  54.9934 133.5958 0071198 234.9100 124.4104  2.00554406 53553
GPS BIII-1  (PRN 04)    
1 43873U 18109A   23153.88571590  .00000074  00000+0  00000+0 0  9990
2 43873  55.1705 136.0571 0024412 194.8497 314.0809  2.00564428 32807
GPS BIII-2  (PRN 18)    
1 44506U 19056A   23152.07522593 -.00000072  00000+0  00000+0 0  9994
2 44506  55.8001  15.2117 0032492 182.9215 359.5463  2.00564276 27764
GPS BIII-3  (PRN 23)    
1 45854U 20041A   23153.65358998 -.00000043  00000+0  00000+0 0  9996
2 45854  55.8037  72.4272 0032212 186.7248 358.6690  2.00565450 21766
GPS BIII-4  (PRN 14)    
1 46826U 20078A   23153.64525508  .00000004  00000+0  00000+0 0  9994
2 46826  54.3578 255.8736 0032325 191.4781 323.4773  2.00562735 19236
GPS BIII-5  (PRN 11)    
1 48859U 21054A   23153.64847375 -.00000069  00000+0  00000+0 0  9998
2 48859  55.3152  16.9798 0009393 208.3113 129.7311  2.00554623 14476
GPS BIII-6  (PRN 28)    
1 55268U 23009A   23153.70290201  .00000106  00000+0  00000+0 0  9990
2 55268  55.0921 192.0860 0004640 101.5114 320.2850  2.00561776  2975
